NORAD_CAT_ID,OBJECT_NAME,OBJECT_TYPE,EPOCH,MEAN_MOTION,ECCENTRICITY,INCLINATION,RA_OF_ASC_NODE,ARG_OF_PERICENTER,MEAN_ANOMALY,BSTAR,MEAN_MOTION_DOT,MEAN_MOTION_DDOT,TLE_LINE0,TLE_LINE1,TLE_LINE2,SEMIMAJOR_AXIS,PERIOD,APOGEE,PERIGEE,DECAYED
55439.0,STARLINK-5634,PAYLOAD,2024-02-15 21:10:50,14.98329603,0.0002548,70.0004,202.6245,266.4522,93.6346,1.2016e-05,5e-07,0.0,0 STARLINK-5634,1 55439U 23014BA  24046.88252847  .00000050  00000-0  12016-4 0  9995,2 55439  70.0004 202.6245 0002548 266.4522  93.6346 14.98329603 58308,6950.194,96.107,573.83,570.288,0.0
55439.0,STARLINK-5634,PAYLOAD,2024-02-16 03:35:22,14.98328249,0.0002569,70.0006,201.9512,267.9355,92.151,6.7243e-06,-1.3e-07,0.0,0 STARLINK-5634,1 55439U 23014BA  24047.14956969 -.00000013  00000-0  67243-5 0  9994,2 55439  70.0006 201.9512 0002569 267.9355  92.1510 14.98328249 57404,6950.198,96.107,573.849,570.278,0.0
55439.0,STARLINK-5634,PAYLOAD,2024-02-16 14:48:19,14.98329586,0.0002636,70.0003,200.7729,267.7946,92.2911,7.0179e-05,7.44e-06,0.0,0 STARLINK-5634,1 55439U 23014BA  24047.61688727  .00000744  00000-0  70179-4 0  9991,2 55439  70.0003 200.7729 0002636 267.7946  92.2911 14.98329586 58410,6950.194,96.107,573.891,570.227,0.0
55439.0,STARLINK-5634,PAYLOAD,2024-02-16 19:36:43,14.98333067,0.0002634,70.0005,200.268,267.96,92.1258,8.5248e-05,9.24e-06,0.0,0 STARLINK-5634,1 55439U 23014BA  24047.81716461  .00000924  00000-0  85248-4 0  9993,2 55439  70.0005 200.2680 0002634 267.9600  92.1258 14.98333067 58445,6950.183,96.107,573.879,570.218,0.0
55439.0,STARLINK-5634,PAYLOAD,2024-02-17 03:37:23,14.98327896,0.0002841,70.0002,199.426,272.7052,87.3782,8.6265e-05,9.36e-06,0.0,0 STARLINK-5634,1 55439U 23014BA  24048.15096704  .00000936  00000-0  86265-4 0  9995,2 55439  70.0002 199.4260 0002841 272.7052  87.3782 14.98327896 57552,6950.199,96.107,574.039,570.09,0.0
55439.0,STARLINK-5634,PAYLOAD,2024-02-17 11:38:04,14.98322452,0.0002682,70.0003,198.584,271.2184,88.8667,1.7843e-05,1.2e-06,0.0,0 STARLINK-5634,1 55439U 23014BA  24048.48477404  .00000120  00000-0  17843-4 0  9992,2 55439  70.0003 198.5840 0002682 271.2184  88.8667 14.98322452 57607,6950.216,96.107,573.945,570.217,0.0
55439.0,STARLINK-5634,PAYLOAD,2024-02-17 14:50:20,14.9832136,0.0002698,70.0002,198.247,271.554,88.531,9.8818e-06,2.5e-07,0.0,0 STARLINK-5634,1 55439U 23014BA  24048.61829552  .00000025  00000-0  98818-5 0  9998,2 55439  70.0002 198.2470 0002698 271.5540  88.5310 14.98321360 58563,6950.22,96.108,573.96,570.209,0.0
55439.0,STARLINK-5634,PAYLOAD,2024-02-17 19:38:44,14.98323828,0.0002638,70.0004,197.742,268.9997,91.0859,1.7762e-05,1.19e-06,0.0,0 STARLINK-5634,1 55439U 23014BA  24048.81857424  .00000119  00000-0  17762-4 0  9991,2 55439  70.0004 197.7420 0002638 268.9997  91.0859 14.98323828 58595,6950.212,96.107,573.91,570.244,0.0
55439.0,STARLINK-5634,PAYLOAD,2024-02-18 11:40:04,14.98337133,0.0002765,70.0004,196.0591,272.5717,87.5125,9.3382e-05,1.022e-05,0.0,0 STARLINK-5634,1 55439U 23014BA  24049.48616362  .00001022  00000-0  93382-4 0  9995,2 55439  70.0004 196.0591 0002765 272.5717  87.5125 14.98337133 57755,6950.171,96.107,573.958,570.114,0.0
55439.0,STARLINK-5634,PAYLOAD,2024-02-18 14:52:20,14.9833651,0.0002868,70.0005,195.7224,271.7713,88.3117,0.00012838,1.439e-05,0.0,0 STARLINK-5634,1 55439U 23014BA  24049.61968231  .00001439  00000-0  12838-3 0  9993,2 55439  70.0005 195.7224 0002868 271.7713  88.3117 14.98336510 58711,6950.173,96.107,574.031,570.044,0.0
55439.0,STARLINK-5634,PAYLOAD,2024-02-18 19:40:44,14.98343589,0.0002792,70.0005,195.2183,270.7531,89.3308,0.00015494,1.757e-05,0.0,0 STARLINK-5634,1 55439U 23014BA  24049.81995608  .00001757  00000-0  15494-3 0  9997,2 55439  70.0005 195.2183 0002792 270.7531  89.3308 14.98343589 58743,6950.151,96.106,573.956,570.075,0.0
55439.0,STARLINK-5634,PAYLOAD,2024-02-19 11:42:05,14.98324883,0.0002543,70.0022,193.538,272.9794,87.1074,0.00010977,1.217e-05,0.0,0 STARLINK-5634,1 55439U 23014BA  24050.48756924  .00001217  00000-0  10977-3 0  9990,2 55439  70.0022 193.5380 0002543 272.9794  87.1074 14.98324883 57900,6950.209,96.107,573.841,570.306,0.0
55439.0,STARLINK-5634,PAYLOAD,2024-02-19 13:18:14,14.98323861,0.0002564,70.002,193.3698,272.5852,87.5014,9.7396e-05,1.069e-05,0.0,0 STARLINK-5634,1 55439U 23014BA  24050.55433032  .00001069  00000-0  97396-4 0  9996,2 55439  70.0020 193.3698 0002564 272.5852  87.5014 14.98323861 58850,6950.212,96.107,573.859,570.295,0.0
55439.0,STARLINK-5634,PAYLOAD,2024-02-19 19:42:47,14.98303315,0.0002325,70.0018,192.6953,267.9578,92.1315,0.00031199,3.629e-05,0.0,0 STARLINK-5634,1 55439U 23014BA  24050.82138002  .00003629  00000-0  31199-3 0  9997,2 55439  70.0018 192.6953 0002325 267.9578  92.1315 14.98303315 57959,6950.275,96.109,573.756,570.524,0.0
55439.0,STARLINK-5634,PAYLOAD,2024-02-20 02:07:18,14.98328326,0.0002804,70.0011,192.0218,267.8865,92.1973,-7.791e-06,-1.86e-06,0.0,0 STARLINK-5634,1 55439U 23014BA  24051.08841047 -.00000186  00000-0 -77910-5 0  9996,2 55439  70.0011 192.0218 0002804 267.8865  92.1973 14.98328326 57993,6950.198,96.107,574.012,570.114,0.0
55439.0,STARLINK-5634,PAYLOAD,2024-02-20 14:56:25,14.98312018,0.0002036,70.0055,190.6762,222.068,138.0323,-0.0001095,-1.398e-05,0.0,0 STARLINK-5634,1 55439U 23014BA  24051.62251250 -.00001398  00000-0 -10950-3 0  9992,2 55439  70.0055 190.6762 0002036 222.0680 138.0323 14.98312018 59019,6950.248,96.108,573.529,570.698,0.0
55439.0,STARLINK-5634,PAYLOAD,2024-02-20 19:44:48,14.98329704,0.0002502,70.0015,190.1709,260.8266,99.261,-6.9506e-05,-9.22e-06,0.0,0 STARLINK-5634,1 55439U 23014BA  24051.82278155 -.00000922  00000-0 -69506-4 0  9991,2 55439  70.0015 190.1709 0002502 260.8266  99.2610 14.98329704 58105,6950.194,96.107,573.798,570.32,0.0
55439.0,STARLINK-5634,PAYLOAD,2024-02-21 11:46:07,14.98337169,0.0003056,70.0002,188.4856,265.2292,94.8518,0.00021242,2.443e-05,0.0,0 STARLINK-5634,1 55439U 23014BA  24052.49036755  .00002443  00000-0  21242-3 0  9995,2 55439  70.0002 188.4856 0003056 265.2292  94.8518 14.98337169 58200,6950.171,96.107,574.16,569.912,0.0
55439.0,STARLINK-5634,PAYLOAD,2024-02-21 14:58:23,14.98339267,0.0003164,70.0001,188.1492,268.4666,91.6131,0.00023199,2.677e-05,0.0,0 STARLINK-5634,1 55439U 23014BA  24052.62388512  .00002677  00000-0  23199-3 0  9993,2 55439  70.0001 188.1492 0003164 268.4666  91.6131 14.98339267 59165,6950.164,96.106,574.228,569.83,0.0
55439.0,STARLINK-5634,PAYLOAD,2024-02-21 18:10:39,14.98343961,0.0003036,70.0003,187.8127,270.5193,89.5618,0.00027778,3.224e-05,0.0,0 STARLINK-5634,1 55439U 23014BA  24052.75740063  .00003224  00000-0  27778-3 0  9996,2 55439  70.0003 187.8127 0003036 270.5193  89.5618 14.98343961 59189,6950.15,96.106,574.125,569.905,0.0
55439.0,STARLINK-5634,PAYLOAD,2024-02-22 11:48:09,14.98311263,0.000261,70.0012,185.9615,265.2106,94.8755,0.00057467,6.767e-05,0.0,0 STARLINK-5634,1 55439U 23014BA  24053.49177216  .00006767  00000-0  57467-3 0  9995,2 55439  70.0012 185.9615 0002610 265.2106  94.8755 14.98311263 58351,6950.251,96.108,573.93,570.302,0.0
55439.0,STARLINK-5634,PAYLOAD,2024-02-22 15:00:24,14.98338327,0.0002648,70.0012,185.6249,263.755,96.3307,0.00011,1.22e-05,0.0,0 STARLINK-5634,1 55439U 23014BA  24053.62528872  .00001220  00000-0  11000-3 0  9990,2 55439  70.0012 185.6249 0002648 263.7550  96.3307 14.98338327 59315,6950.167,96.106,573.873,570.192,0.0
55439.0,STARLINK-5634,PAYLOAD,2024-02-22 18:12:40,14.983391,0.0002844,70.0006,185.2878,261.2921,98.7916,0.00011043,1.225e-05,0.0,0 STARLINK-5634,1 55439U 23014BA  24053.75880717  .00001225  00000-0  11043-3 0  9995,2 55439  70.0006 185.2878 0002844 261.2921  98.7916 14.98339100 58394,6950.165,96.106,574.006,570.053,0.0
55439.0,STARLINK-5634,PAYLOAD,2024-02-23 15:02:25,14.98341822,0.000289,70.0009,183.1004,268.3328,91.75,-7.9853e-05,-1.046e-05,0.0,0 STARLINK-5634,1 55439U 23014BA  24054.62668378 -.00001046  00000-0 -79853-4 0  9996,2 55439  70.0009 183.1004 0002890 268.3328  91.7500 14.98341822 59460,6950.156,96.106,574.03,570.013,0.0
55439.0,STARLINK-5634,PAYLOAD,2024-02-23 18:14:41,14.98342156,0.0002939,70.0009,182.7639,268.8592,91.2231,-8.408e-05,-1.096e-05,0.0,0 STARLINK-5634,1 55439U 23014BA  24054.76020266 -.00001096  00000-0 -84080-4 0  9992,2 55439  70.0009 182.7639 0002939 268.8592  91.2231 14.98342156 58546,6950.155,96.106,574.063,569.978,0.0
55439.0,STARLINK-5634,PAYLOAD,2024-02-24 11:52:10,14.98329499,0.0002916,70.0009,180.9119,268.367,91.7155,-6.0538e-05,-8.15e-06,0.0,0 STARLINK-5634,1 55439U 23014BA  24055.49456722 -.00000815  00000-0 -60538-4 0  9993,2 55439  70.0009 180.9119 0002916 268.3670  91.7155 14.98329499 58653,6950.194,96.107,574.086,570.033,0.0
55439.0,STARLINK-5634,PAYLOAD,2024-02-24 15:04:26,14.98332832,0.00029,70.001,180.5748,269.1123,90.9704,-4.28e-05,-6.04e-06,0.0,0 STARLINK-5634,1 55439U 23014BA  24055.62808454 -.00000604  00000-0 -42800-4 0  9999,2 55439  70.0010 180.5748 0002900 269.1123  90.9704 14.98332832 59617,6950.184,96.107,574.065,570.034,0.0
55439.0,STARLINK-5634,PAYLOAD,2024-02-25 11:54:10,14.98335428,0.0002867,70.0011,178.3869,271.1183,88.9647,6.2543e-05,6.53e-06,0.0,0 STARLINK-5634,1 55439U 23014BA  24056.49595822  .00000653  00000-0  62543-4 0  9995,2 55439  70.0011 178.3869 0002867 271.1183  88.9647 14.98335428 58805,6950.176,96.107,574.034,570.048,0.0
55439.0,STARLINK-5634,PAYLOAD,2024-02-25 15:06:26,14.98336128,0.000286,70.0012,178.0516,267.8021,92.2811,0.00014708,1.663e-05,0.0,0 STARLINK-5634,1 55439U 23014BA  24056.62947482  .00001663  00000-0  14708-3 0  9994,2 55439  70.0012 178.0516 0002860 267.8021  92.2811 14.98336128 59763,6950.174,96.107,574.027,570.051,0.0
55439.0,STARLINK-5634,PAYLOAD,2024-02-25 18:18:42,14.98336921,0.0002794,70.0014,177.7149,267.5219,92.562,0.00016898,1.924e-05,0.0,0 STARLINK-5634,1 55439U 23014BA  24056.76299336  .00001924  00000-0  16898-3 0  9999,2 55439  70.0014 177.7149 0002794 267.5219  92.5620 14.98336921 59789,6950.171,96.107,573.978,570.095,0.0
